start=new Date('2022-07-25T00:00:00.000Z').valueOf();
sats=[{"PERIOD":"95.437","TLE_LINE2":"2 51992  53.2145 201.7708 0001657  57.5489 246.0104 15.08843271 22606","INCLINATION":"53.2145","MEAN_MOTION":"15.08843271","PERIAPSIS":"538.589","GP_ID":"208774841","SEMIMAJOR_AXIS":"6917.870","TLE_LINE1":"1 51992U 22025AN  22205.91667824 -.00005491  00000-0 -32714-3 0  9992","EPOCH":"2022-07-24T22:00:00.999936","LAUNCH_DATE":"2022-03-09","BSTAR":"-0.00032714000000","SITE":"AFETR","REV_AT_EPOCH":"2260","MEAN_ELEMENT_THEORY":"SGP4","OBJECT_TYPE":"PAYLOAD","CENTER_NAME":"EARTH","FILE":"3521010","MEAN_MOTION_DDOT":"0.0000000000000","TIME_SYSTEM":"UTC","APOAPSIS":"540.882","COUNTRY_CODE":"US","OBJECT_NAME":"STARLINK-3643","ECCENTRICITY":"0.00016570","NORAD_CAT_ID":"51992","CLASSIFICATION_TYPE":"U","ELEMENT_SET_NO":"999","OBJECT_ID":"2022-025AN","EPHEMERIS_TYPE":"0","RA_OF_ASC_NODE":"201.7708","ARG_OF_PERICENTER":"57.5489","DECAY_DATE":null,"MEAN_ANOMALY":"246.0104","MEAN_MOTION_DOT":"-0.00005491","REF_FRAME":"TEME","RCS_SIZE":"LARGE"},{"EPOCH":"2022-07-24T22:00:00.999936","LAUNCH_DATE":"2022-03-09","BSTAR":"0.00236550000000","GP_ID":"208799714","SEMIMAJOR_AXIS":"6917.929","TLE_LINE1":"1 51993U 22025AP  22205.91667824  .00037544  00000-0  23655-2 0  9998","PERIAPSIS":"538.409","PERIOD":"95.439","TLE_LINE2":"2 51993  53.2186 221.7666 0002002  56.8968 116.5847 15.08824015  1300","MEAN_MOTION":"15.08824015","INCLINATION":"53.2186","TIME_SYSTEM":"UTC","FILE":"3521124","MEAN_MOTION_DDOT":"0.0000000000000","MEAN_ELEMENT_THEORY":"SGP4","OBJECT_TYPE":"PAYLOAD","CENTER_NAME":"EARTH","SITE":"AFETR","REV_AT_EPOCH":"130","ECCENTRICITY":"0.00020020","NORAD_CAT_ID":"51993","OBJECT_NAME":"STARLINK-3648","APOAPSIS":"541.179","COUNTRY_CODE":"US","MEAN_ANOMALY":"116.5847","MEAN_MOTION_DOT":"0.00037544","REF_FRAME":"TEME","RCS_SIZE":"LARGE","ARG_OF_PERICENTER":"56.8968","DECAY_DATE":null,"EPHEMERIS_TYPE":"0","RA_OF_ASC_NODE":"221.7666","CLASSIFICATION_TYPE":"U","ELEMENT_SET_NO":"999","OBJECT_ID":"2022-025AP"},{"PERIAPSIS":"538.592","INCLINATION":"53.2143","MEAN_MOTION":"15.08810290","PERIOD":"95.439","TLE_LINE2":"2 51994  53.2143 201.7708 0001799  57.7351 265.8045 15.08810290  1305","LAUNCH_DATE":"2022-03-09","BSTAR":"0.00267460000000","EPOCH":"2022-07-24T22:00:00.999936","TLE_LINE1":"1 51994U 22025AQ  22205.91667824  .00042501  00000-0  26746-2 0  9992","SEMIMAJOR_AXIS":"6917.971","GP_ID":"208799964","CENTER_NAME":"EARTH","OBJECT_TYPE":"PAYLOAD","MEAN_ELEMENT_THEORY":"SGP4","REV_AT_EPOCH":"130","SITE":"AFETR","TIME_SYSTEM":"UTC","MEAN_MOTION_DDOT":"0.0000000000000","FILE":"3521124","OBJECT_NAME":"STARLINK-3647","COUNTRY_CODE":"US","APOAPSIS":"541.081","ECCENTRICITY":"0.00017990","NORAD_CAT_ID":"51994","RA_OF_ASC_NODE":"201.7708","EPHEMERIS_TYPE":"0","OBJECT_ID":"2022-025AQ","CLASSIFICATION_TYPE":"U","ELEMENT_SET_NO":"999","REF_FRAME":"TEME","RCS_SIZE":"LARGE","MEAN_ANOMALY":"265.8045","MEAN_MOTION_DOT":"0.00042501","DECAY_DATE":null,"ARG_OF_PERICENTER":"57.7351"},{"MEAN_ELEMENT_THEORY":"SGP4","OBJECT_TYPE":"PAYLOAD","CENTER_NAME":"EARTH","SITE":"AFETR","REV_AT_EPOCH":"130","TIME_SYSTEM":"UTC","FILE":"3521124","MEAN_MOTION_DDOT":"0.0000000000000","PERIAPSIS":"538.772","TLE_LINE2":"2 51995  53.2142 201.7643 0001450  69.4235 194.0632 15.08830126  1303","PERIOD":"95.438","INCLINATION":"53.2142","MEAN_MOTION":"15.08830126","EPOCH":"2022-07-24T22:00:00.999936","BSTAR":"0.00238540000000","LAUNCH_DATE":"2022-03-09","GP_ID":"208801215","SEMIMAJOR_AXIS":"6917.911","TLE_LINE1":"1 51995U 22025AR  22205.91667824  .00037870  00000-0  23854-2 0  9993","EPHEMERIS_TYPE":"0","RA_OF_ASC_NODE":"201.7643","ELEMENT_SET_NO":"999","CLASSIFICATION_TYPE":"U","OBJECT_ID":"2022-025AR","MEAN_MOTION_DOT":"0.00037870","MEAN_ANOMALY":"194.0632","RCS_SIZE":"LARGE","REF_FRAME":"TEME","ARG_OF_PERICENTER":"69.4235","DECAY_DATE":null,"OBJECT_NAME":"STARLINK-3636","APOAPSIS":"540.779","COUNTRY_CODE":"US","NORAD_CAT_ID":"51995","ECCENTRICITY":"0.00014500"},{"NORAD_CAT_ID":"51996","ECCENTRICITY":"0.00016290","OBJECT_NAME":"STARLINK-3538","APOAPSIS":"540.966","COUNTRY_CODE":"US","MEAN_MOTION_DOT":"0.00042828","MEAN_ANOMALY":"269.2062","RCS_SIZE":"LARGE","REF_FRAME":"TEME","ARG_OF_PERICENTER":"74.3438","DECAY_DATE":null,"EPHEMERIS_TYPE":"0","RA_OF_ASC_NODE":"201.7706","ELEMENT_SET_NO":"999","CLASSIFICATION_TYPE":"U","OBJECT_ID":"2022-025AS","EPOCH":"2022-07-24T22:00:00.999936","BSTAR":"0.00269500000000","LAUNCH_DATE":"2022-03-09","GP_ID":"208800959","TLE_LINE1":"1 51996U 22025AS  22205.91667824  .00042828  00000-0  26950-2 0  9993","SEMIMAJOR_AXIS":"6917.974","PERIAPSIS":"538.712","TLE_LINE2":"2 51996  53.2141 201.7706 0001629  74.3438 269.2062 15.08809455  1304","PERIOD":"95.439","INCLINATION":"53.2141","MEAN_MOTION":"15.08809455","TIME_SYSTEM":"UTC","FILE":"3521124","MEAN_MOTION_DDOT":"0.0000000000000","MEAN_ELEMENT_THEORY":"SGP4","CENTER_NAME":"EARTH","OBJECT_TYPE":"PAYLOAD","SITE":"AFETR","REV_AT_EPOCH":"130"},{"TLE_LINE1":"1 51997U 22025AT  22205.91667824 -.00008050  00000-0 -48818-3 0  9993","SEMIMAJOR_AXIS":"6917.871","GP_ID":"208774650","BSTAR":"-0.00048818000000","LAUNCH_DATE":"2022-03-09","EPOCH":"2022-07-24T22:00:00.999936","MEAN_MOTION":"15.08843079","INCLINATION":"53.2138","TLE_LINE2":"2 51997  53.2138 201.7680 0001535  68.1615 215.3908 15.08843079 22580","PERIOD":"95.437","PERIAPSIS":"538.674","MEAN_MOTION_DDOT":"0.0000000000000","FILE":"3521014","TIME_SYSTEM":"UTC","REV_AT_EPOCH":"2258","SITE":"AFETR","OBJECT_TYPE":"PAYLOAD","CENTER_NAME":"EARTH","MEAN_ELEMENT_THEORY":"SGP4","NORAD_CAT_ID":"51997","ECCENTRICITY":"0.00015350","COUNTRY_CODE":"US","APOAPSIS":"540.798","OBJECT_NAME":"STARLINK-3589","DECAY_DATE":null,"ARG_OF_PERICENTER":"68.1615","RCS_SIZE":"MEDIUM","REF_FRAME":"TEME","MEAN_MOTION_DOT":"-0.00008050","MEAN_ANOMALY":"215.3908","OBJECT_ID":"2022-025AT","ELEMENT_SET_NO":"999","CLASSIFICATION_TYPE":"U","RA_OF_ASC_NODE":"201.7680","EPHEMERIS_TYPE":"0"},{"ECCENTRICITY":"0.00013850","NORAD_CAT_ID":"51998","OBJECT_NAME":"STARLINK-3618","COUNTRY_CODE":"US","APOAPSIS":"540.730","REF_FRAME":"TEME","RCS_SIZE":"LARGE","MEAN_ANOMALY":"74.6534","MEAN_MOTION_DOT":"0.00034894","DECAY_DATE":null,"ARG_OF_PERICENTER":"68.8746","RA_OF_ASC_NODE":"201.7510","EPHEMERIS_TYPE":"0","OBJECT_ID":"2022-025AU","CLASSIFICATION_TYPE":"U","ELEMENT_SET_NO":"999","LAUNCH_DATE":"2022-03-09","BSTAR":"0.00220020000000","EPOCH":"2022-07-24T22:00:00.999936","TLE_LINE1":"1 51998U 22025AU  22205.91667824  .00034894  00000-0  22002-2 0  9993","SEMIMAJOR_AXIS":"6917.907","GP_ID":"208800464","PERIAPSIS":"538.814","INCLINATION":"53.2157","MEAN_MOTION":"15.08831333","PERIOD":"95.438","TLE_LINE2":"2 51998  53.2157 201.7510 0001385  68.8746  74.6534 15.08831333  1307","TIME_SYSTEM":"UTC","MEAN_MOTION_DDOT":"0.0000000000000","FILE":"3521124","OBJECT_TYPE":"PAYLOAD","CENTER_NAME":"EARTH","MEAN_ELEMENT_THEORY":"SGP4","REV_AT_EPOCH":"130","SITE":"AFETR"},{"MEAN_ELEMENT_THEORY":"SGP4","OBJECT_TYPE":"PAYLOAD","CENTER_NAME":"EARTH","SITE":"AFETR","REV_AT_EPOCH":"2258","TIME_SYSTEM":"UTC","FILE":"3521016","MEAN_MOTION_DDOT":"0.0000000000000","PERIAPSIS":"538.732","PERIOD":"95.439","TLE_LINE2":"2 51999  53.2136 201.7690 0001596  74.8232 283.5273 15.08810251 22585","INCLINATION":"53.2136","MEAN_MOTION":"15.08810251","EPOCH":"2022-07-24T22:00:00.999936","LAUNCH_DATE":"2022-03-09","BSTAR":"0.00270570000000","GP_ID":"208774938","SEMIMAJOR_AXIS":"6917.971","TLE_LINE1":"1 51999U 22025AV  22205.91667824  .00043001  00000-0  27057-2 0  9999","EPHEMERIS_TYPE":"0","RA_OF_ASC_NODE":"201.7690","CLASSIFICATION_TYPE":"U","ELEMENT_SET_NO":"999","OBJECT_ID":"2022-025AV","MEAN_ANOMALY":"283.5273","MEAN_MOTION_DOT":"0.00043001","REF_FRAME":"TEME","RCS_SIZE":"LARGE","ARG_OF_PERICENTER":"74.8232","DECAY_DATE":null,"OBJECT_NAME":"STARLINK-3667","APOAPSIS":"540.940","COUNTRY_CODE":"US","ECCENTRICITY":"0.00015960","NORAD_CAT_ID":"51999"},{"DECAY_DATE":null,"ARG_OF_PERICENTER":"73.4480","RCS_SIZE":"LARGE","REF_FRAME":"TEME","MEAN_MOTION_DOT":"0.00033911","MEAN_ANOMALY":"104.8988","OBJECT_ID":"2022-025AW","ELEMENT_SET_NO":"999","CLASSIFICATION_TYPE":"U","RA_OF_ASC_NODE":"201.7505","EPHEMERIS_TYPE":"0","NORAD_CAT_ID":"52000","ECCENTRICITY":"0.00014530","COUNTRY_CODE":"US","APOAPSIS":"540.800","OBJECT_NAME":"STARLINK-3653","MEAN_MOTION_DDOT":"0.0000000000000","FILE":"3521016","TIME_SYSTEM":"UTC","REV_AT_EPOCH":"2261","SITE":"AFETR","CENTER_NAME":"EARTH","OBJECT_TYPE":"PAYLOAD","MEAN_ELEMENT_THEORY":"SGP4","TLE_LINE1":"1 52000U 22025AW  22205.91667824  .00033911  00000-0  21395-2 0  9991","SEMIMAJOR_AXIS":"6917.930","GP_ID":"208774689","BSTAR":"0.00213950000000","LAUNCH_DATE":"2022-03-09","EPOCH":"2022-07-24T22:00:00.999936","INCLINATION":"53.2152","MEAN_MOTION":"15.08823807","TLE_LINE2":"2 52000  53.2152 201.7505 0001453  73.4480 104.8988 15.08823807 22617","PERIOD":"95.439","PERIAPSIS":"538.790"},{"NORAD_CAT_ID":"52001","ECCENTRICITY":"0.00013820","COUNTRY_CODE":"US","APOAPSIS":"540.673","OBJECT_NAME":"STARLINK-3659","DECAY_DATE":null,"ARG_OF_PERICENTER":"80.3714","RCS_SIZE":"LARGE","REF_FRAME":"TEME","MEAN_MOTION_DOT":"-0.00009624","MEAN_ANOMALY":"83.1773","OBJECT_ID":"2022-025AX","ELEMENT_SET_NO":"999","CLASSIFICATION_TYPE":"U","RA_OF_ASC_NODE":"201.7513","EPHEMERIS_TYPE":"0","SEMIMAJOR_AXIS":"6917.852","TLE_LINE1":"1 52001U 22025AX  22205.91667824 -.00009624  00000-0 -58724-3 0  9995","GP_ID":"208799715","BSTAR":"-0.00058724000000","LAUNCH_DATE":"2022-03-09","EPOCH":"2022-07-24T22:00:00.999936","INCLINATION":"53.2154","MEAN_MOTION":"15.08849194","TLE_LINE2":"2 52001  53.2154 201.7513 0001382  80.3714  83.1773 15.08849194  1308","PERIOD":"95.437","PERIAPSIS":"538.761","MEAN_MOTION_DDOT":"0.0000000000000","FILE":"3521124","TIME_SYSTEM":"UTC","REV_AT_EPOCH":"130","SITE":"AFETR","OBJECT_TYPE":"PAYLOAD","CENTER_NAME":"EARTH","MEAN_ELEMENT_THEORY":"SGP4"}];
